ONEWEB-0369             
1 49295U 21090S   24013.33854704  .00000063  00000+0  12480-3 0  9991
2 49295  87.9209 121.3046 0001774 109.9810 250.1514 13.19725019109578
ONEWEB-0370             
1 49296U 21090T   24013.49988046  .00000040  00000+0  65274-4 0  9991
2 49296  87.9178  90.7416 0001714 101.2480 258.8846 13.20771127112958
ONEWEB-0371             
1 49297U 21090U   24013.34644681  .00000047  00000+0  85527-4 0  9990
2 49297  87.9208 121.2928 0001829 106.5980 253.5354 13.19730352109619
ONEWEB-0372             
1 49298U 21090V   24013.26142498  .00000056  00000+0  10661-3 0  9997
2 49298  87.9188  90.7971 0001967 107.4848 252.6501 13.20771474112891
ONEWEB-0373             
1 49299U 21090W   24013.59141677  .00000138  00000+0  30706-3 0  9995
2 49299  87.9185  90.7491 0001692 115.8819 244.2489 13.20771705114129
ONEWEB-0374             
1 49300U 21090X   24013.33606339  .00000201  00000+0  50828-3 0  9999
2 49300  87.8974 106.0352 0001701 110.4534 249.6778 13.14503385111183
ONEWEB-0375             
1 49301U 21090Y   24013.57879203 -.00000058  00000+0 -17564-3 0  9990
2 49301  87.9188  90.7269 0001014  99.2369 260.8879 13.20770461113621
ONEWEB-0376             
1 49302U 21090Z   24013.34486664  .00000042  00000+0  72609-4 0  9994
2 49302  87.9202 121.3119 0002009 111.6614 248.4733 13.19724467109619
